KAITUO 1B               
1 40912U 15049P   18032.74373265  .00001070  00000-0  55130-4 0  9992
2 40912  97.4504  42.0144 0017150 119.3372 327.4852 15.18413071131111
TIANWANG 1C (TW-1C)     
1 40926U 15051B   18033.09108023  .00005953  00000-0  11998-3 0  9994
2 40926  97.2025  76.1396 0012230  59.3286 352.9384 15.46859997132419
TIANWANG 1B (TW-1B)     
1 40927U 15051C   18033.07720804  .00005536  00000-0  11627-3 0  9996
2 40927  97.2108  76.0310 0012405  68.1917  15.7002 15.45681301132333
TIANWANG 1A (TW-1A)     
1 40928U 15051D   18033.15523407  .00002424  00000-0  67035-4 0  9994
2 40928  97.2023  69.7609 0014277  89.4950 307.1609 15.37885991132021
LAPAN-A2 (IO-86)        
1 40931U 15052B   18032.36058954  .00000757  00000-0  16439-4 0  9990
2 40931   5.9988  38.5755 0013181 249.6522 110.2637 14.76563983126893
LQSAT                   
1 40958U 15057A   18033.19140877 -.00000014  00000-0  55990-5 0  9995
2 40958  97.9549 109.2124 0019484  52.5073 307.7918 14.73013462124977
CHUBUSAT-2              
1 41338U 16012B   18032.55827192  .00000297  00000-0  16520-4 0  9998
2 41338  31.0037  95.3150 0013805 170.4189 189.6711 14.99912466107456
CHUBUSAT-3              
1 41339U 16012C   18033.18803374  .00000284  00000-0  15378-4 0  9991
2 41339  31.0090  90.1047 0013804 184.5538 175.4989 15.00104618107531
OUFTI-1                 
1 41458U 16025C   18033.08764017  .00002037  00000-0  11093-3 0  9993
2 41458  98.1562  88.6306 0170416 240.1872 118.2331 15.04211319 97124
E-ST@R-II               
1 41459U 16025D   18032.87232010  .00001106  00000-0  62849-4 0  9995
2 41459  98.1565  88.2950 0170759 241.4480 116.9433 15.03976941 97089
AAUSAT 4                
1 41460U 16025E   18032.90561240  .00001232  00000-0  68938-4 0  9996
2 41460  98.1476  88.6359 0162568 238.3086 120.2223 15.05222839 97138
NUSAT 1 (LO-87)         
1 41557U 16033B   18033.21080770  .00001078  00000-0  42224-4 0  9999
2 41557  97.4456 117.6468 0012288 275.3023  84.6814 15.27957736 93549
BEESAT-4                
1 41619U 16040W   18033.15255783  .00001090  00000-0  51183-4 0  9995
2 41619  97.4335  98.0757 0011302 351.8820   8.2232 15.21708327 77551
PRATHAM                 
1 41783U 16059A   18032.77849111  .00000045  00000-0  18153-4 0  9997
2 41783  98.1371  96.3997 0034187 158.8136 201.4490 14.62897645 72160
ALSAT 1N                
1 41789U 16059G   18033.12282192  .00000056  00000-0  19694-4 0  9996
2 41789  98.1370  97.6894 0029075 149.8512 210.4378 14.64123424 72257
NAYIF-1 (EO-88)         
1 42017U 17008BX  18032.92405519  .00001215  00000-0  53099-4 0  9998
2 42017  97.4663  98.7008 0007825 127.8919 232.3027 15.23995924 53468
LILACSAT-1              
1 42725U 98067ME  18032.91126263  .00015309  00000-0  16822-3 0  9994
2 42725  51.6386 324.8481 0006086  88.3182 271.8510 15.63388259 39333
MAX VALIER SAT          
1 42778U 17036P   18032.93377313  .00000757  00000-0  37190-4 0  9998
2 42778  97.4225  94.7819 0012935 176.3705 183.7626 15.21009102 33949
FOX-1B (AO-91)          
1 43017U 17073E   18032.81041506  .00000949  00000-0  80281-4 0  9997
2 43017  97.6990 329.6730 0260387 352.6153   7.1253 14.77875809 11116
FOX-1D (AO-92)          
1 43137U 18004AC  18032.90980938  .00000826  00000-0  38879-4 0  9996
2 43137  97.5528  95.1312 0008918 205.0613 155.0192 15.22398900  3139
